[{"OBJECT_NAME":"STARLINK-36986","OBJECT_ID":"2026-053A","EPOCH":"2026-03-29T04:00:01.999584","MEAN_MOTION":15.80836809,"ECCENTRICITY":0.0001384,"INCLINATION":97.284,"RA_OF_ASC_NODE":323.3692,"ARG_OF_PERICENTER":100.5956,"MEAN_ANOMALY":257.5975,"EPHEMERIS_TYPE":0,"CLASSIFICATION_TYPE":"U","NORAD_CAT_ID":68207,"ELEMENT_SET_NO":999,"REV_AT_EPOCH":314,"BSTAR":-0.00010298,"MEAN_MOTION_DOT":-0.00019842,"MEAN_MOTION_DDOT":0},{"OBJECT_NAME":"STARLINK-37009","OBJECT_ID":"2026-053B","EPOCH":"2026-03-29T04:00:01.999584","MEAN_MOTION":15.80789874,"ECCENTRICITY":0.0001844,"INCLINATION":97.2842,"RA_OF_ASC_NODE":323.3702,"ARG_OF_PERICENTER":85.3276,"MEAN_ANOMALY":277.1605,"EPHEMERIS_TYPE":0,"CLASSIFICATION_TYPE":"U","NORAD_CAT_ID":68208,"ELEMENT_SET_NO":999,"REV_AT_EPOCH":314,"BSTAR":0.00024238,"MEAN_MOTION_DOT":0.00046479,"MEAN_MOTION_DDOT":0},{"OBJECT_NAME":"STARLINK-36948","OBJECT_ID":"2026-053C","EPOCH":"2026-03-29T04:00:01.999584","MEAN_MOTION":15.80806491,"ECCENTRICITY":0.0001866,"INCLINATION":97.2844,"RA_OF_ASC_NODE":323.3731,"ARG_OF_PERICENTER":104.1827,"MEAN_ANOMALY":262.5641,"EPHEMERIS_TYPE":0,"CLASSIFICATION_TYPE":"U","NORAD_CAT_ID":68209,"ELEMENT_SET_NO":999,"REV_AT_EPOCH":303,"BSTAR":0.00018212,"MEAN_MOTION_DOT":0.00034869,"MEAN_MOTION_DDOT":0},{"OBJECT_NAME":"STARLINK-37119","OBJECT_ID":"2026-053D","EPOCH":"2026-03-29T04:00:01.999584","MEAN_MOTION":15.8084091,"ECCENTRICITY":0.000148,"INCLINATION":97.2841,"RA_OF_ASC_NODE":323.3733,"ARG_OF_PERICENTER":114.6468,"MEAN_ANOMALY":256.3667,"EPHEMERIS_TYPE":0,"CLASSIFICATION_TYPE":"U","NORAD_CAT_ID":68210,"ELEMENT_SET_NO":999,"REV_AT_EPOCH":314,"BSTAR":-0.00020441,"MEAN_MOTION_DOT":-0.00039166,"MEAN_MOTION_DDOT":0},{"OBJECT_NAME":"STARLINK-37120","OBJECT_ID":"2026-053E","EPOCH":"2026-03-29T04:00:01.999584","MEAN_MOTION":15.80797847,"ECCENTRICITY":0.0001332,"INCLINATION":97.2843,"RA_OF_ASC_NODE":323.3752,"ARG_OF_PERICENTER":84.9207,"MEAN_ANOMALY":290.3931,"EPHEMERIS_TYPE":0,"CLASSIFICATION_TYPE":"U","NORAD_CAT_ID":68211,"ELEMENT_SET_NO":999,"REV_AT_EPOCH":312,"BSTAR":0.00012918,"MEAN_MOTION_DOT":0.00024652,"MEAN_MOTION_DDOT":0},{"OBJECT_NAME":"STARLINK-37117","OBJECT_ID":"2026-053F","EPOCH":"2026-03-29T04:00:01.999584","MEAN_MOTION":15.80824466,"ECCENTRICITY":0.0001463,"INCLINATION":97.2842,"RA_OF_ASC_NODE":323.3777,"ARG_OF_PERICENTER":94.8759,"MEAN_ANOMALY":284.6938,"EPHEMERIS_TYPE":0,"CLASSIFICATION_TYPE":"U","NORAD_CAT_ID":68212,"ELEMENT_SET_NO":999,"REV_AT_EPOCH":314,"BSTAR":-3.6512e-5,"MEAN_MOTION_DOT":-7.133e-5,"MEAN_MOTION_DDOT":0},{"OBJECT_NAME":"STARLINK-37116","OBJECT_ID":"2026-053G","EPOCH":"2026-03-29T04:00:01.999584","MEAN_MOTION":15.80796107,"ECCENTRICITY":0.0001601,"INCLINATION":97.2843,"RA_OF_ASC_NODE":323.3794,"ARG_OF_PERICENTER":98.3849,"MEAN_ANOMALY":285.4724,"EPHEMERIS_TYPE":0,"CLASSIFICATION_TYPE":"U","NORAD_CAT_ID":68213,"ELEMENT_SET_NO":999,"REV_AT_EPOCH":314,"BSTAR":0.00022907,"MEAN_MOTION_DOT":0.00043917,"MEAN_MOTION_DDOT":0},{"OBJECT_NAME":"STARLINK-35854","OBJECT_ID":"2026-053H","EPOCH":"2026-03-29T04:00:01.999584","MEAN_MOTION":15.80831223,"ECCENTRICITY":0.0001484,"INCLINATION":97.2841,"RA_OF_ASC_NODE":323.3806,"ARG_OF_PERICENTER":89.3076,"MEAN_ANOMALY":298.807,"EPHEMERIS_TYPE":0,"CLASSIFICATION_TYPE":"U","NORAD_CAT_ID":68214,"ELEMENT_SET_NO":999,"REV_AT_EPOCH":290,"BSTAR":-0.00011803,"MEAN_MOTION_DOT":-0.00022708,"MEAN_MOTION_DDOT":0},{"OBJECT_NAME":"STARLINK-36272","OBJECT_ID":"2026-053J","EPOCH":"2026-03-29T04:00:01.999584","MEAN_MOTION":15.80802439,"ECCENTRICITY":0.0001402,"INCLINATION":97.2842,"RA_OF_ASC_NODE":323.3827,"ARG_OF_PERICENTER":108.0529,"MEAN_ANOMALY":284.3489,"EPHEMERIS_TYPE":0,"CLASSIFICATION_TYPE":"U","NORAD_CAT_ID":68215,"ELEMENT_SET_NO":999,"REV_AT_EPOCH":303,"BSTAR":0.00013826,"MEAN_MOTION_DOT":0.00026405,"MEAN_MOTION_DDOT":0},{"OBJECT_NAME":"STARLINK-37014","OBJECT_ID":"2026-053K","EPOCH":"2026-03-29T04:00:01.999584","MEAN_MOTION":15.80806719,"ECCENTRICITY":0.000146,"INCLINATION":97.2843,"RA_OF_ASC_NODE":323.3844,"ARG_OF_PERICENTER":115.8607,"MEAN_ANOMALY":280.8126,"EPHEMERIS_TYPE":0,"CLASSIFICATION_TYPE":"U","NORAD_CAT_ID":68216,"ELEMENT_SET_NO":999,"REV_AT_EPOCH":314,"BSTAR":0.00014603,"MEAN_MOTION_DOT":0.00027907,"MEAN_MOTION_DDOT":0},{"OBJECT_NAME":"STARLINK-37011","OBJECT_ID":"2026-053L","EPOCH":"2026-03-29T04:00:01.999584","MEAN_MOTION":15.80818844,"ECCENTRICITY":0.0001556,"INCLINATION":97.2842,"RA_OF_ASC_NODE":323.3866,"ARG_OF_PERICENTER":111.3345,"MEAN_ANOMALY":289.6086,"EPHEMERIS_TYPE":0,"CLASSIFICATION_TYPE":"U","NORAD_CAT_ID":68217,"ELEMENT_SET_NO":999,"REV_AT_EPOCH":314,"BSTAR":3.5899e-5,"MEAN_MOTION_DOT":6.741e-5,"MEAN_MOTION_DDOT":0},{"OBJECT_NAME":"STARLINK-37108","OBJECT_ID":"2026-053M","EPOCH":"2026-03-29T04:00:01.999584","MEAN_MOTION":15.8083517,"ECCENTRICITY":0.0001582,"INCLINATION":97.2842,"RA_OF_ASC_NODE":323.3879,"ARG_OF_PERICENTER":107.4898,"MEAN_ANOMALY":297.715,"EPHEMERIS_TYPE":0,"CLASSIFICATION_TYPE":"U","NORAD_CAT_ID":68218,"ELEMENT_SET_NO":999,"REV_AT_EPOCH":314,"BSTAR":-0.00011844,"MEAN_MOTION_DOT":-0.0002279,"MEAN_MOTION_DDOT":0},{"OBJECT_NAME":"STARLINK-37106","OBJECT_ID":"2026-053N","EPOCH":"2026-03-29T04:00:01.999584","MEAN_MOTION":15.80874032,"ECCENTRICITY":0.0001576,"INCLINATION":97.2841,"RA_OF_ASC_NODE":323.3896,"ARG_OF_PERICENTER":101.6321,"MEAN_ANOMALY":307.8636,"EPHEMERIS_TYPE":0,"CLASSIFICATION_TYPE":"U","NORAD_CAT_ID":68219,"ELEMENT_SET_NO":999,"REV_AT_EPOCH":314,"BSTAR":-0.00071141,"MEAN_MOTION_DOT":-0.00134694,"MEAN_MOTION_DDOT":0},{"OBJECT_NAME":"STARLINK-37030","OBJECT_ID":"2026-053P","EPOCH":"2026-03-29T04:00:01.999584","MEAN_MOTION":15.80838454,"ECCENTRICITY":0.0001492,"INCLINATION":97.2844,"RA_OF_ASC_NODE":323.3934,"ARG_OF_PERICENTER":95.8613,"MEAN_ANOMALY":322.1744,"EPHEMERIS_TYPE":0,"CLASSIFICATION_TYPE":"U","NORAD_CAT_ID":68220,"ELEMENT_SET_NO":999,"REV_AT_EPOCH":314,"BSTAR":-0.00046817,"MEAN_MOTION_DOT":-0.00089005,"MEAN_MOTION_DDOT":0},{"OBJECT_NAME":"STARLINK-37012","OBJECT_ID":"2026-053Q","EPOCH":"2026-03-29T04:00:01.999584","MEAN_MOTION":15.8079005,"ECCENTRICITY":0.0001414,"INCLINATION":97.2837,"RA_OF_ASC_NODE":323.3915,"ARG_OF_PERICENTER":85.8256,"MEAN_ANOMALY":327.9474,"EPHEMERIS_TYPE":0,"CLASSIFICATION_TYPE":"U","NORAD_CAT_ID":68221,"ELEMENT_SET_NO":999,"REV_AT_EPOCH":314,"BSTAR":0.00028262,"MEAN_MOTION_DOT":0.00054266,"MEAN_MOTION_DDOT":0},{"OBJECT_NAME":"STARLINK-37110","OBJECT_ID":"2026-053R","EPOCH":"2026-03-29T04:00:01.999584","MEAN_MOTION":15.8084877,"ECCENTRICITY":0.0001677,"INCLINATION":97.2846,"RA_OF_ASC_NODE":323.3951,"ARG_OF_PERICENTER":93.2761,"MEAN_ANOMALY":329.028,"EPHEMERIS_TYPE":0,"CLASSIFICATION_TYPE":"U","NORAD_CAT_ID":68222,"ELEMENT_SET_NO":999,"REV_AT_EPOCH":314,"BSTAR":-0.00033281,"MEAN_MOTION_DOT":-0.00063527,"MEAN_MOTION_DDOT":0}]
